NETSAT-3                
1 46505U 20068V   26115.94879877  .00020493  00000+0  50054-3 0  9994
2 46505  97.8676 118.3501 0006578 147.0629 213.1027 15.40855955307631
NETSAT-1                
1 46506U 20068W   26115.95025086  .00014552  00000+0  45370-3 0  9995
2 46506  97.8756 113.2792 0005248 167.4209 192.7164 15.33347715307298
NETSAT-2                
1 46507U 20068X   26115.95794389  .00024690  00000+0  54698-3 0  9992
2 46507  97.8645 119.7983 0004943 150.4718 209.6808 15.43760263307670
GREENCUBE (IO-117)      
1 53109U 22080E   26115.57919411 -.00000003  00000+0  00000+0 0  9994
2 53109  70.1459 316.5503 0008760 301.7513  58.2293  6.42583381 88689
SITRO-AIS 5 (KATYS)     
1 57176U 23091L   26115.90511162  .00013400  00000+0  48855-3 0  9991
2 57176  97.5100 179.3471 0009885 287.6071  72.4088 15.28251523156356
SITRO-AIS 6 (CHIRKIN)   
1 57192U 23091AC  26115.89895574  .00006908  00000+0  27892-3 0  9992
2 57192  97.5105 178.7267 0010359 292.9915  67.0229 15.25056445156315
SITRO-AIS 8 (ANOKHIN)   
1 57193U 23091AD  26115.94455028  .00016560  00000+0  55890-3 0  9999
2 57193  97.5092 180.7722 0009105 282.9174  77.1049 15.30730929156452
SITRO-AIS 7 (FARTUSHNIY)
1 57194U 23091AE  26115.89185354  .00006573  00000+0  26780-3 0  9995
2 57194  97.5104 178.5704 0010237 294.1983  65.8184 15.24773772156307
SITRO-AIS 10 (BURDAEV)  
1 57199U 23091AK  26115.92582880  .00024135  00000+0  67541-3 0  9993
2 57199  97.5111 185.2936 0005553 250.5505 109.5139 15.36634984156730
SITRO-AIS 9 (SHCHUKIN)  
1 57201U 23091AM  26115.93657222  .00021576  00000+0  61274-3 0  9994
2 57201  97.5109 185.0731 0005762 251.2271 108.8348 15.36196548156724
SITRO-AIS 12 (SMIRENNIY)
1 57204U 23091AQ  26115.93687043  .00021881  00000+0  61595-3 0  9996
2 57204  97.5121 185.5084 0005539 243.4901 116.5775 15.36471420156749
SITRO-AIS 11 (SHEFFER)  
1 57208U 23091AU  26115.89882031  .00020102  00000+0  55933-3 0  9993
2 57208  97.5120 185.6852 0005504 243.2709 116.7971 15.36851454156752
SITRO-AIS 25            
1 59066U 24039R   26115.97601035  .00007503  00000+0  58483-3 0  9995
2 59066  95.3920 199.2228 0147108 149.9133 211.0647 14.93081746116934
SITRO-AIS 26            
1 59067U 24039S   26115.97042486  .00006944  00000+0  54405-3 0  9993
2 59067  95.3919 199.1270 0147351 150.4747 210.4904 14.92888179116929
SITRO-AIS 27            
1 59068U 24039T   26115.95510284  .00006345  00000+0  49315-3 0  9997
2 59068  95.3920 199.3648 0146406 149.3190 211.6700 14.93293322116942
SITRO-AIS 28            
1 59071U 24039U   26115.93375935  .00005964  00000+0  46335-3 0  9996
2 59071  95.3929 199.3943 0146309 149.1891 211.8026 14.93331971116947
