[{"OBJECT_NAME":"NETSAT-3","OBJECT_ID":"2020-068V","EPOCH":"2026-04-25T22:46:16.213728","MEAN_MOTION":15.40855955,"ECCENTRICITY":0.00065785,"INCLINATION":97.8676,"RA_OF_ASC_NODE":118.3501,"ARG_OF_PERICENTER":147.0629,"MEAN_ANOMALY":213.1027,"EPHEMERIS_TYPE":0,"CLASSIFICATION_TYPE":"U","NORAD_CAT_ID":46505,"ELEMENT_SET_NO":999,"REV_AT_EPOCH":30763,"BSTAR":0.00050054482,"MEAN_MOTION_DOT":0.00020493,"MEAN_MOTION_DDOT":0},{"OBJECT_NAME":"NETSAT-1","OBJECT_ID":"2020-068W","EPOCH":"2026-04-25T22:48:21.674304","MEAN_MOTION":15.33347715,"ECCENTRICITY":0.00052481,"INCLINATION":97.8756,"RA_OF_ASC_NODE":113.2792,"ARG_OF_PERICENTER":167.4209,"MEAN_ANOMALY":192.7164,"EPHEMERIS_TYPE":0,"CLASSIFICATION_TYPE":"U","NORAD_CAT_ID":46506,"ELEMENT_SET_NO":999,"REV_AT_EPOCH":30729,"BSTAR":0.00045370214,"MEAN_MOTION_DOT":0.00014552,"MEAN_MOTION_DDOT":0},{"OBJECT_NAME":"NETSAT-2","OBJECT_ID":"2020-068X","EPOCH":"2026-04-25T22:59:26.352096","MEAN_MOTION":15.43760263,"ECCENTRICITY":0.00049434,"INCLINATION":97.8645,"RA_OF_ASC_NODE":119.7983,"ARG_OF_PERICENTER":150.4718,"MEAN_ANOMALY":209.6808,"EPHEMERIS_TYPE":0,"CLASSIFICATION_TYPE":"U","NORAD_CAT_ID":46507,"ELEMENT_SET_NO":999,"REV_AT_EPOCH":30767,"BSTAR":0.00054698214,"MEAN_MOTION_DOT":0.0002469,"MEAN_MOTION_DDOT":0},{"OBJECT_NAME":"GREENCUBE (IO-117)","OBJECT_ID":"2022-080E","EPOCH":"2026-04-25T13:54:02.371104","MEAN_MOTION":6.42583381,"ECCENTRICITY":0.00087608,"INCLINATION":70.1459,"RA_OF_ASC_NODE":316.5503,"ARG_OF_PERICENTER":301.7513,"MEAN_ANOMALY":58.2293,"EPHEMERIS_TYPE":0,"CLASSIFICATION_TYPE":"U","NORAD_CAT_ID":53109,"ELEMENT_SET_NO":999,"REV_AT_EPOCH":8868,"BSTAR":0,"MEAN_MOTION_DOT":-3.0e-8,"MEAN_MOTION_DDOT":0},{"OBJECT_NAME":"SITRO-AIS 5 (KATYS)","OBJECT_ID":"2023-091L","EPOCH":"2026-04-25T21:43:21.643968","MEAN_MOTION":15.28251523,"ECCENTRICITY":0.00098855,"INCLINATION":97.51,"RA_OF_ASC_NODE":179.3471,"ARG_OF_PERICENTER":287.6071,"MEAN_ANOMALY":72.4088,"EPHEMERIS_TYPE":0,"CLASSIFICATION_TYPE":"U","NORAD_CAT_ID":57176,"ELEMENT_SET_NO":999,"REV_AT_EPOCH":15635,"BSTAR":0.00048854661,"MEAN_MOTION_DOT":0.000134,"MEAN_MOTION_DDOT":0},{"OBJECT_NAME":"SITRO-AIS 6 (CHIRKIN)","OBJECT_ID":"2023-091AC","EPOCH":"2026-04-25T21:34:29.775936","MEAN_MOTION":15.25056445,"ECCENTRICITY":0.00103594,"INCLINATION":97.5105,"RA_OF_ASC_NODE":178.7267,"ARG_OF_PERICENTER":292.9915,"MEAN_ANOMALY":67.0229,"EPHEMERIS_TYPE":0,"CLASSIFICATION_TYPE":"U","NORAD_CAT_ID":57192,"ELEMENT_SET_NO":999,"REV_AT_EPOCH":15631,"BSTAR":0.00027892066,"MEAN_MOTION_DOT":6.908e-5,"MEAN_MOTION_DDOT":0},{"OBJECT_NAME":"SITRO-AIS 8 (ANOKHIN)","OBJECT_ID":"2023-091AD","EPOCH":"2026-04-25T22:40:09.144192","MEAN_MOTION":15.30730929,"ECCENTRICITY":0.00091052,"INCLINATION":97.5092,"RA_OF_ASC_NODE":180.7722,"ARG_OF_PERICENTER":282.9174,"MEAN_ANOMALY":77.1049,"EPHEMERIS_TYPE":0,"CLASSIFICATION_TYPE":"U","NORAD_CAT_ID":57193,"ELEMENT_SET_NO":999,"REV_AT_EPOCH":15645,"BSTAR":0.000558897,"MEAN_MOTION_DOT":0.0001656,"MEAN_MOTION_DDOT":0},{"OBJECT_NAME":"SITRO-AIS 7 (FARTUSHNIY)","OBJECT_ID":"2023-091AE","EPOCH":"2026-04-25T21:24:16.145856","MEAN_MOTION":15.24773772,"ECCENTRICITY":0.00102372,"INCLINATION":97.5104,"RA_OF_ASC_NODE":178.5704,"ARG_OF_PERICENTER":294.1983,"MEAN_ANOMALY":65.8184,"EPHEMERIS_TYPE":0,"CLASSIFICATION_TYPE":"U","NORAD_CAT_ID":57194,"ELEMENT_SET_NO":999,"REV_AT_EPOCH":15630,"BSTAR":0.00026779745,"MEAN_MOTION_DOT":6.573e-5,"MEAN_MOTION_DDOT":0},{"OBJECT_NAME":"SITRO-AIS 10 (BURDAEV)","OBJECT_ID":"2023-091AK","EPOCH":"2026-04-25T22:13:11.608320","MEAN_MOTION":15.36634984,"ECCENTRICITY":0.00055536,"INCLINATION":97.5111,"RA_OF_ASC_NODE":185.2936,"ARG_OF_PERICENTER":250.5505,"MEAN_ANOMALY":109.5139,"EPHEMERIS_TYPE":0,"CLASSIFICATION_TYPE":"U","NORAD_CAT_ID":57199,"ELEMENT_SET_NO":999,"REV_AT_EPOCH":15673,"BSTAR":0.00067540634,"MEAN_MOTION_DOT":0.00024135,"MEAN_MOTION_DDOT":0},{"OBJECT_NAME":"SITRO-AIS 9 (SHCHUKIN)","OBJECT_ID":"2023-091AM","EPOCH":"2026-04-25T22:28:39.839808","MEAN_MOTION":15.36196548,"ECCENTRICITY":0.00057622,"INCLINATION":97.5109,"RA_OF_ASC_NODE":185.0731,"ARG_OF_PERICENTER":251.2271,"MEAN_ANOMALY":108.8348,"EPHEMERIS_TYPE":0,"CLASSIFICATION_TYPE":"U","NORAD_CAT_ID":57201,"ELEMENT_SET_NO":999,"REV_AT_EPOCH":15672,"BSTAR":0.00061274005,"MEAN_MOTION_DOT":0.00021576,"MEAN_MOTION_DDOT":0},{"OBJECT_NAME":"SITRO-AIS 12 (SMIRENNIY)","OBJECT_ID":"2023-091AQ","EPOCH":"2026-04-25T22:29:05.605152","MEAN_MOTION":15.3647142,"ECCENTRICITY":0.00055392,"INCLINATION":97.5121,"RA_OF_ASC_NODE":185.5084,"ARG_OF_PERICENTER":243.4901,"MEAN_ANOMALY":116.5775,"EPHEMERIS_TYPE":0,"CLASSIFICATION_TYPE":"U","NORAD_CAT_ID":57204,"ELEMENT_SET_NO":999,"REV_AT_EPOCH":15674,"BSTAR":0.00061594539,"MEAN_MOTION_DOT":0.00021881,"MEAN_MOTION_DDOT":0},{"OBJECT_NAME":"SITRO-AIS 11 (SHEFFER)","OBJECT_ID":"2023-091AU","EPOCH":"2026-04-25T21:34:18.074784","MEAN_MOTION":15.36851454,"ECCENTRICITY":0.00055049,"INCLINATION":97.512,"RA_OF_ASC_NODE":185.6852,"ARG_OF_PERICENTER":243.2709,"MEAN_ANOMALY":116.7971,"EPHEMERIS_TYPE":0,"CLASSIFICATION_TYPE":"U","NORAD_CAT_ID":57208,"ELEMENT_SET_NO":999,"REV_AT_EPOCH":15675,"BSTAR":0.00055932782,"MEAN_MOTION_DOT":0.00020102,"MEAN_MOTION_DDOT":0},{"OBJECT_NAME":"SITRO-AIS 25","OBJECT_ID":"2024-039R","EPOCH":"2026-04-25T23:25:27.294240","MEAN_MOTION":14.93081746,"ECCENTRICITY":0.01471084,"INCLINATION":95.392,"RA_OF_ASC_NODE":199.2228,"ARG_OF_PERICENTER":149.9133,"MEAN_ANOMALY":211.0647,"EPHEMERIS_TYPE":0,"CLASSIFICATION_TYPE":"U","NORAD_CAT_ID":59066,"ELEMENT_SET_NO":999,"REV_AT_EPOCH":11693,"BSTAR":0.00058483318,"MEAN_MOTION_DOT":7.503e-5,"MEAN_MOTION_DDOT":0},{"OBJECT_NAME":"SITRO-AIS 26","OBJECT_ID":"2024-039S","EPOCH":"2026-04-25T23:17:24.707904","MEAN_MOTION":14.92888179,"ECCENTRICITY":0.01473517,"INCLINATION":95.3919,"RA_OF_ASC_NODE":199.127,"ARG_OF_PERICENTER":150.4747,"MEAN_ANOMALY":210.4904,"EPHEMERIS_TYPE":0,"CLASSIFICATION_TYPE":"U","NORAD_CAT_ID":59067,"ELEMENT_SET_NO":999,"REV_AT_EPOCH":11692,"BSTAR":0.0005440484,"MEAN_MOTION_DOT":6.944e-5,"MEAN_MOTION_DDOT":0},{"OBJECT_NAME":"SITRO-AIS 27","OBJECT_ID":"2024-039T","EPOCH":"2026-04-25T22:55:20.885376","MEAN_MOTION":14.93293322,"ECCENTRICITY":0.0146406,"INCLINATION":95.392,"RA_OF_ASC_NODE":199.3648,"ARG_OF_PERICENTER":149.319,"MEAN_ANOMALY":211.67,"EPHEMERIS_TYPE":0,"CLASSIFICATION_TYPE":"U","NORAD_CAT_ID":59068,"ELEMENT_SET_NO":999,"REV_AT_EPOCH":11694,"BSTAR":0.00049315036,"MEAN_MOTION_DOT":6.345e-5,"MEAN_MOTION_DDOT":0},{"OBJECT_NAME":"SITRO-AIS 28","OBJECT_ID":"2024-039U","EPOCH":"2026-04-25T22:24:36.807840","MEAN_MOTION":14.93331971,"ECCENTRICITY":0.01463091,"INCLINATION":95.3929,"RA_OF_ASC_NODE":199.3943,"ARG_OF_PERICENTER":149.1891,"MEAN_ANOMALY":211.8026,"EPHEMERIS_TYPE":0,"CLASSIFICATION_TYPE":"U","NORAD_CAT_ID":59071,"ELEMENT_SET_NO":999,"REV_AT_EPOCH":11694,"BSTAR":0.000463352,"MEAN_MOTION_DOT":5.964e-5,"MEAN_MOTION_DDOT":0}]
